CTC1_L_00458016-03
1 10062U 26064ZW  26075.70035880  .00000000  00000+0  00000-0 0  9997
2 10062  82.0000 180.0000 0000000   0.0000   0.0000 15.08756051    19
CTC1_L_00458016-04
1 10063U 23190JH  26075.70035880  .00000000  00000+0  00000-0 0  9995
2 10063  82.0000 180.0000 0000000   0.0000  90.0000 15.08756051    19
CTC1_L_00458017-01
1 10064U 24752QZ  26075.70035880  .00000000  00000+0  00000-0 0  9991
2 10064  82.0000 192.0000 0000000   0.0000 192.0000 15.08756051    16
CTC1_L_00458017-02
1 10065U 22951H   26075.70035880  .00000000  00000+0  00000-0 0  9991
2 10065  82.0000 192.0000 0000000   0.0000 282.0000 15.08756051    17
CTC1_L_00458017-03
1 10066U 23667EG  26075.70035880  .00000000  00000+0  00000-0 0  9997
2 10066  82.0000 192.0000 0000000   0.0000  12.0000 15.08756051    19
CTC1_L_00458017-04
1 10067U 25635LW  26075.70035880  .00000000  00000+0  00000-0 0  9995
2 10067  82.0000 192.0000 0000000   0.0000 102.0000 15.08756051    10
CTC1_L_00458018-01
1 10068U 23795GR  26075.70035880  .00000000  00000+0  00000-0 0  9991
2 10068  82.0000 204.0000 0000000   0.0000 204.0000 15.08756051    18
CTC1_L_00458018-02
1 10069U 24164II  26075.70035880  .00000000  00000+0  00000-0 0  9993
2 10069  82.0000 204.0000 0000000   0.0000 294.0000 15.08756051    18
CTC1_L_00458018-03
1 10070U 25797IX  26075.70035880  .00000000  00000+0  00000-0 0  9998
2 10070  82.0000 204.0000 0000000   0.0000  24.0000 15.08756051    11
CTC1_L_00458018-04
1 10071U 23494KW  26075.70035880  .00000000  00000+0  00000-0 0  9991
2 10071  82.0000 204.0000 0000000   0.0000 114.0000 15.08756051    12
CTC1_L_00458019-01
1 10072U 24860MR  26075.70035880  .00000000  00000+0  00000-0 0  9990
2 10072  82.0000 216.0000 0000000   0.0000 216.0000 15.08756051    19
CTC1_L_00458019-02
1 10073U 22157UW  26075.70035880  .00000000  00000+0  00000-0 0  9998
2 10073  82.0000 216.0000 0000000   0.0000 306.0000 15.08756051    10
CTC1_L_00458019-03
1 10074U 22842QX  26075.70035880  .00000000  00000+0  00000-0 0  9990
2 10074  82.0000 216.0000 0000000   0.0000  36.0000 15.08756051    11
CTC1_L_00458019-04
1 10075U 24490CD  26075.70035880  .00000000  00000+0  00000-0 0  9992
2 10075  82.0000 216.0000 0000000   0.0000 126.0000 15.08756051    12
CTC1_L_00458020-01
1 10076U 24384GX  26075.70035880  .00000000  00000+0  00000-0 0  9995
2 10076  82.0000 228.0000 0000000   0.0000 228.0000 15.08756051    19
CTC1_L_00458020-02
1 10077U 22933VN  26075.70035880  .00000000  00000+0  00000-0 0  9994
2 10077  82.0000 228.0000 0000000   0.0000 318.0000 15.08756051    10
CTC1_L_00458020-03
1 10078U 25172XB  26075.70035880  .00000000  00000+0  00000-0 0  9993
2 10078  82.0000 228.0000 0000000   0.0000  48.0000 15.08756051    11
CTC1_L_00458020-04
1 10079U 24070LO  26075.70035880  .00000000  00000+0  00000-0 0  9990
2 10079  82.0000 228.0000 0000000   0.0000 138.0000 15.08756051    12
CTC1_L_00458021-01
1 10080U 22091YA  26075.70035880  .00000000  00000+0  00000-0 0  9993
2 10080  82.0000 240.0000 0000000   0.0000 240.0000 15.08756051    12
CTC1_L_00458021-02
1 10081U 24932RE  26075.70035880  .00000000  00000+0  00000-0 0  9990
2 10081  82.0000 240.0000 0000000   0.0000 330.0000 15.08756051    13
CTC1_L_00458021-03
1 10082U 24443VX  26075.70035880  .00000000  00000+0  00000-0 0  9998
2 10082  82.0000 240.0000 0000000   0.0000  60.0000 15.08756051    14
CTC1_L_00458021-04
1 10083U 23174SG  26075.70035880  .00000000  00000+0  00000-0 0  9999
2 10083  82.0000 240.0000 0000000   0.0000 150.0000 15.08756051    15
CTC1_L_00458022-01
1 10084U 22228DM  26075.70035880  .00000000  00000+0  00000-0 0  9999
2 10084  82.0000 252.0000 0000000   0.0000 252.0000 15.08756051    12
CTC1_L_00458022-02
1 10085U 25221PY  26075.70035880  .00000000  00000+0  00000-0 0  9996
2 10085  82.0000 252.0000 0000000   0.0000 342.0000 15.08756051    13
CTC1_L_00458022-03
1 10086U 24898U   26075.70035880  .00000000  00000+0  00000-0 0  9996
2 10086  82.0000 252.0000 0000000   0.0000  72.0000 15.08756051    14
CTC1_L_00458022-04
1 10087U 25020YC  26075.70035880  .00000000  00000+0  00000-0 0  9995
2 10087  82.0000 252.0000 0000000   0.0000 162.0000 15.08756051    15
CTC1_L_00458023-01
1 10088U 23086RT  26075.70035880  .00000000  00000+0  00000-0 0  9996
2 10088  82.0000 264.0000 0000000   0.0000 264.0000 15.08756051    12
CTC1_L_00458023-02
1 10089U 24910NA  26075.70035880  .00000000  00000+0  00000-0 0  9994
2 10089  82.0000 264.0000 0000000   0.0000 354.0000 15.08756051    13
CTC1_L_00458023-03
1 10090U 25064QX  26075.70035880  .00000000  00000+0  00000-0 0  9997
2 10090  82.0000 264.0000 0000000   0.0000  84.0000 15.08756051    15
CTC1_L_00458023-04
1 10091U 24298BS  26075.70035880  .00000000  00000+0  00000-0 0  9996
2 10091  82.0000 264.0000 0000000   0.0000 174.0000 15.08756051    16
CTC1_L_00458024-01
1 10092U 25123FY  26075.70035880  .00000000  00000+0  00000-0 0  9995
2 10092  82.0000 276.0000 0000000   0.0000 276.0000 15.08756051    13
CTC1_L_00458024-02
1 10093U 23953AD  26075.70035880  .00000000  00000+0  00000-0 0  9995
2 10093  82.0000 276.0000 0000000   0.0000   6.0000 15.08756051    15
CTC1_L_00458024-03
1 10094U 26858SE  26075.70035880  .00000000  00000+0  00000-0 0  9993
2 10094  82.0000 276.0000 0000000   0.0000  96.0000 15.08756051    15
CTC1_L_00458024-04
1 10095U 22131JY  26075.70035880  .00000000  00000+0  00000-0 0  9994
2 10095  82.0000 276.0000 0000000   0.0000 186.0000 15.08756051    16
CTC1_L_00458025-01
1 10096U 26369KT  26075.70035880  .00000000  00000+0  00000-0 0  9992
2 10096  82.0000 288.0000 0000000   0.0000 288.0000 15.08756051    13
CTC1_L_00458025-02
1 10097U 25651EQ  26075.70035880  .00000000  00000+0  00000-0 0  9996
2 10097  82.0000 288.0000 0000000   0.0000  18.0000 15.08756051    15
CTC1_L_00458025-03
1 10098U 26436PH  26075.70035880  .00000000  00000+0  00000-0 0  9999
2 10098  82.0000 288.0000 0000000   0.0000 108.0000 15.08756051    16
CTC1_L_00458025-04
1 10099U 24376EO  26075.70035880  .00000000  00000+0  00000-0 0  9991
2 10099  82.0000 288.0000 0000000   0.0000 198.0000 15.08756051    16
CTC1_L_00458026-01
1 10100U 25974OH  26075.70035880  .00000000  00000+0  00000-0 0  9999
2 10100  82.0000 300.0000 0000000   0.0000 300.0000 15.08756051    19
CTC1_L_00458026-02
1 10101U 24877GR  26075.70035880  .00000000  00000+0  00000-0 0  9991
2 10101  82.0000 300.0000 0000000   0.0000  30.0000 15.08756051    10
CTC1_L_00458026-03
1 10102U 25658XY  26075.70035880  .00000000  00000+0  00000-0 0  9990
2 10102  82.0000 300.0000 0000000   0.0000 120.0000 15.08756051    11
CTC1_L_00458026-04
1 10103U 26036AS  26075.70035880  .00000000  00000+0  00000-0 0  9992
2 10103  82.0000 300.0000 0000000   0.0000 210.0000 15.08756051    12
CTC1_L_00458027-01
1 10104U 23176ML  26075.70035880  .00000000  00000+0  00000-0 0  9995
2 10104  82.0000 312.0000 0000000   0.0000 312.0000 15.08756051    19
CTC1_L_00458027-02
1 10105U 22213ER  26075.70035880  .00000000  00000+0  00000-0 0  9997
2 10105  82.0000 312.0000 0000000   0.0000  42.0000 15.08756051    10
CTC1_L_00458027-03
1 10106U 25259DJ  26075.70035880  .00000000  00000+0  00000-0 0  9991
2 10106  82.0000 312.0000 0000000   0.0000 132.0000 15.08756051    11
CTC1_L_00458027-04
1 10107U 25778PM  26075.70035880  .00000000  00000+0  00000-0 0  9998
2 10107  82.0000 312.0000 0000000   0.0000 222.0000 15.08756051    12
CTC1_L_00458028-01
1 10108U 22358CK  26075.70035880  .00000000  00000+0  00000-0 0  9990
2 10108  82.0000 324.0000 0000000   0.0000 324.0000 15.08756051    19
CTC1_L_00458028-02
1 10109U 24043PC  26075.70035880  .00000000  00000+0  00000-0 0  9994
2 10109  82.0000 324.0000 0000000   0.0000  54.0000 15.08756051    10
CTC1_L_00458028-03
1 10110U 26759HD  26075.70035880  .00000000  00000+0  00000-0 0  9992
2 10110  82.0000 324.0000 0000000   0.0000 144.0000 15.08756051    12
CTC1_L_00458028-04
1 10111U 25825JQ  26075.70035880  .00000000  00000+0  00000-0 0  9996
2 10111  82.0000 324.0000 0000000   0.0000 234.0000 15.08756051    13
CTC1_L_00458029-01
1 10112U 23053OY  26075.70035880  .00000000  00000+0  00000-0 0  9998
2 10112  82.0000 336.0000 0000000   0.0000 336.0000 15.08756051    10
CTC1_L_00458029-02
1 10113U 26007BJ  26075.70035880  .00000000  00000+0  00000-0 0  9991
2 10113  82.0000 336.0000 0000000   0.0000  66.0000 15.08756051    11
CTC1_L_00458029-03
1 10114U 26585BJ  26075.70035880  .00000000  00000+0  00000-0 0  9993
2 10114  82.0000 336.0000 0000000   0.0000 156.0000 15.08756051    12
CTC1_L_00458029-04
1 10115U 23328OA  26075.70035880  .00000000  00000+0  00000-0 0  9996
2 10115  82.0000 336.0000 0000000   0.0000 246.0000 15.08756051    13
CTC1_L_00458030-01
1 10116U 25145VY  26075.70035880  .00000000  00000+0  00000-0 0  9996
2 10116  82.0000 348.0000 0000000   0.0000 348.0000 15.08756051    10
CTC1_L_00458030-02
1 10117U 23377WQ  26075.70035880  .00000000  00000+0  00000-0 0  9992
2 10117  82.0000 348.0000 0000000   0.0000  78.0000 15.08756051    11
CTC1_L_00458030-03
1 10118U 22241GA  26075.70035880  .00000000  00000+0  00000-0 0  9992
2 10118  82.0000 348.0000 0000000   0.0000 168.0000 15.08756051    12
CTC1_L_00458030-04
1 10119U 24729HZ  26075.70035880  .00000000  00000+0  00000-0 0  9996
2 10119  82.0000 348.0000 0000000   0.0000 258.0000 15.08756051    13
